[{"OBJECT_NAME":"ONEWEB-0412","OBJECT_ID":"2021-132W","EPOCH":"2025-08-11T21:47:04.855776","MEAN_MOTION":13.18684827,"ECCENTRICITY":0.0002178,"INCLINATION":87.9131,"RA_OF_ASC_NODE":36.8847,"ARG_OF_PERICENTER":88.8237,"MEAN_ANOMALY":271.3144,"EPHEMERIS_TYPE":0,"CLASSIFICATION_TYPE":"U","NORAD_CAT_ID":50489,"ELEMENT_SET_NO":999,"REV_AT_EPOCH":18217,"BSTAR":6.5979e-5,"MEAN_MOTION_DOT":3.9e-7,"MEAN_MOTION_DDOT":0},{"OBJECT_NAME":"ONEWEB-0413","OBJECT_ID":"2021-132X","EPOCH":"2025-08-11T18:15:39.232800","MEAN_MOTION":13.18688087,"ECCENTRICITY":0.0002113,"INCLINATION":87.9134,"RA_OF_ASC_NODE":36.9296,"ARG_OF_PERICENTER":84.4014,"MEAN_ANOMALY":275.7359,"EPHEMERIS_TYPE":0,"CLASSIFICATION_TYPE":"U","NORAD_CAT_ID":50490,"ELEMENT_SET_NO":999,"REV_AT_EPOCH":18081,"BSTAR":-8.0979e-5,"MEAN_MOTION_DOT":-1.9e-7,"MEAN_MOTION_DDOT":0},{"OBJECT_NAME":"ONEWEB-0414","OBJECT_ID":"2021-132Y","EPOCH":"2025-08-11T23:22:05.208096","MEAN_MOTION":13.18685489,"ECCENTRICITY":0.0002033,"INCLINATION":87.9129,"RA_OF_ASC_NODE":36.8473,"ARG_OF_PERICENTER":93.6567,"MEAN_ANOMALY":266.4797,"EPHEMERIS_TYPE":0,"CLASSIFICATION_TYPE":"U","NORAD_CAT_ID":50491,"ELEMENT_SET_NO":999,"REV_AT_EPOCH":18216,"BSTAR":-4.9386e-6,"MEAN_MOTION_DOT":1.1e-7,"MEAN_MOTION_DDOT":0},{"OBJECT_NAME":"ONEWEB-0417","OBJECT_ID":"2021-132Z","EPOCH":"2025-08-11T21:44:42.694944","MEAN_MOTION":13.18685121,"ECCENTRICITY":0.0001771,"INCLINATION":87.9134,"RA_OF_ASC_NODE":36.8926,"ARG_OF_PERICENTER":99.091,"MEAN_ANOMALY":261.0423,"EPHEMERIS_TYPE":0,"CLASSIFICATION_TYPE":"U","NORAD_CAT_ID":50492,"ELEMENT_SET_NO":999,"REV_AT_EPOCH":18213,"BSTAR":-0.00017986,"MEAN_MOTION_DOT":-5.8e-7,"MEAN_MOTION_DDOT":0},{"OBJECT_NAME":"ONEWEB-0418","OBJECT_ID":"2021-132AA","EPOCH":"2025-08-11T21:58:43.909536","MEAN_MOTION":13.18687081,"ECCENTRICITY":0.0001812,"INCLINATION":87.9133,"RA_OF_ASC_NODE":36.8768,"ARG_OF_PERICENTER":103.4068,"MEAN_ANOMALY":256.7266,"EPHEMERIS_TYPE":0,"CLASSIFICATION_TYPE":"U","NORAD_CAT_ID":50493,"ELEMENT_SET_NO":999,"REV_AT_EPOCH":18090,"BSTAR":4.2446e-5,"MEAN_MOTION_DOT":3.0e-7,"MEAN_MOTION_DDOT":0},{"OBJECT_NAME":"ONEWEB-0419","OBJECT_ID":"2021-132AB","EPOCH":"2025-08-11T22:25:04.302048","MEAN_MOTION":13.18687668,"ECCENTRICITY":0.0001521,"INCLINATION":87.913,"RA_OF_ASC_NODE":36.8751,"ARG_OF_PERICENTER":97.7765,"MEAN_ANOMALY":262.354,"EPHEMERIS_TYPE":0,"CLASSIFICATION_TYPE":"U","NORAD_CAT_ID":50494,"ELEMENT_SET_NO":999,"REV_AT_EPOCH":18082,"BSTAR":-8.8473e-5,"MEAN_MOTION_DOT":-2.2e-7,"MEAN_MOTION_DDOT":0},{"OBJECT_NAME":"ONEWEB-0420","OBJECT_ID":"2021-132AC","EPOCH":"2025-08-11T21:35:11.779296","MEAN_MOTION":13.18685287,"ECCENTRICITY":0.0001917,"INCLINATION":87.9132,"RA_OF_ASC_NODE":36.892,"ARG_OF_PERICENTER":81.1424,"MEAN_ANOMALY":278.9925,"EPHEMERIS_TYPE":0,"CLASSIFICATION_TYPE":"U","NORAD_CAT_ID":50495,"ELEMENT_SET_NO":999,"REV_AT_EPOCH":18081,"BSTAR":1.794e-5,"MEAN_MOTION_DOT":2.0e-7,"MEAN_MOTION_DDOT":0},{"OBJECT_NAME":"ONEWEB-0421","OBJECT_ID":"2021-132AD","EPOCH":"2025-08-11T21:25:42.121632","MEAN_MOTION":13.18685402,"ECCENTRICITY":0.0002121,"INCLINATION":87.9131,"RA_OF_ASC_NODE":36.8863,"ARG_OF_PERICENTER":93.2132,"MEAN_ANOMALY":266.9243,"EPHEMERIS_TYPE":0,"CLASSIFICATION_TYPE":"U","NORAD_CAT_ID":50496,"ELEMENT_SET_NO":999,"REV_AT_EPOCH":18085,"BSTAR":0.0001504,"MEAN_MOTION_DOT":7.2e-7,"MEAN_MOTION_DDOT":0},{"OBJECT_NAME":"ONEWEB-0424","OBJECT_ID":"2021-132AE","EPOCH":"2025-08-11T22:17:56.392224","MEAN_MOTION":13.18687145,"ECCENTRICITY":0.0001364,"INCLINATION":87.9134,"RA_OF_ASC_NODE":36.8734,"ARG_OF_PERICENTER":93.1183,"MEAN_ANOMALY":267.0106,"EPHEMERIS_TYPE":0,"CLASSIFICATION_TYPE":"U","NORAD_CAT_ID":50497,"ELEMENT_SET_NO":999,"REV_AT_EPOCH":18088,"BSTAR":-2.9355e-5,"MEAN_MOTION_DOT":1.0e-8,"MEAN_MOTION_DDOT":0},{"OBJECT_NAME":"ONEWEB-0426","OBJECT_ID":"2021-132AF","EPOCH":"2025-08-11T21:20:56.731200","MEAN_MOTION":13.18685463,"ECCENTRICITY":0.0002357,"INCLINATION":87.9127,"RA_OF_ASC_NODE":36.8745,"ARG_OF_PERICENTER":105.545,"MEAN_ANOMALY":254.5942,"EPHEMERIS_TYPE":0,"CLASSIFICATION_TYPE":"U","NORAD_CAT_ID":50498,"ELEMENT_SET_NO":999,"REV_AT_EPOCH":18211,"BSTAR":2.0692e-5,"MEAN_MOTION_DOT":2.1e-7,"MEAN_MOTION_DDOT":0},{"OBJECT_NAME":"ONEWEB-0427","OBJECT_ID":"2021-132AG","EPOCH":"2025-08-11T22:15:33.825312","MEAN_MOTION":13.18687057,"ECCENTRICITY":0.0001763,"INCLINATION":87.9129,"RA_OF_ASC_NODE":36.8564,"ARG_OF_PERICENTER":98.6637,"MEAN_ANOMALY":261.4695,"EPHEMERIS_TYPE":0,"CLASSIFICATION_TYPE":"U","NORAD_CAT_ID":50499,"ELEMENT_SET_NO":999,"REV_AT_EPOCH":18085,"BSTAR":-1.3168e-5,"MEAN_MOTION_DOT":8.0e-8,"MEAN_MOTION_DDOT":0},{"OBJECT_NAME":"ONEWEB-0429","OBJECT_ID":"2021-132AH","EPOCH":"2025-08-11T21:56:34.662912","MEAN_MOTION":13.18686196,"ECCENTRICITY":0.0001825,"INCLINATION":87.9134,"RA_OF_ASC_NODE":36.8882,"ARG_OF_PERICENTER":86.8452,"MEAN_ANOMALY":273.2889,"EPHEMERIS_TYPE":0,"CLASSIFICATION_TYPE":"U","NORAD_CAT_ID":50500,"ELEMENT_SET_NO":999,"REV_AT_EPOCH":18082,"BSTAR":3.1437e-5,"MEAN_MOTION_DOT":2.5e-7,"MEAN_MOTION_DDOT":0},{"OBJECT_NAME":"ONEWEB-0430","OBJECT_ID":"2021-132AJ","EPOCH":"2025-08-11T21:39:57.014208","MEAN_MOTION":13.18685641,"ECCENTRICITY":0.000157,"INCLINATION":87.9138,"RA_OF_ASC_NODE":36.8847,"ARG_OF_PERICENTER":85.7018,"MEAN_ANOMALY":274.4294,"EPHEMERIS_TYPE":0,"CLASSIFICATION_TYPE":"U","NORAD_CAT_ID":50501,"ELEMENT_SET_NO":999,"REV_AT_EPOCH":18215,"BSTAR":4.0439e-5,"MEAN_MOTION_DOT":2.9e-7,"MEAN_MOTION_DDOT":0},{"OBJECT_NAME":"ONEWEB-0432","OBJECT_ID":"2021-132AK","EPOCH":"2025-08-11T22:25:23.463840","MEAN_MOTION":13.18688272,"ECCENTRICITY":0.0001289,"INCLINATION":87.9124,"RA_OF_ASC_NODE":36.8591,"ARG_OF_PERICENTER":120.9082,"MEAN_ANOMALY":239.2177,"EPHEMERIS_TYPE":0,"CLASSIFICATION_TYPE":"U","NORAD_CAT_ID":50502,"ELEMENT_SET_NO":999,"REV_AT_EPOCH":18082,"BSTAR":-7.4543e-5,"MEAN_MOTION_DOT":-1.6e-7,"MEAN_MOTION_DDOT":0},{"OBJECT_NAME":"ONEWEB-0440","OBJECT_ID":"2021-132AL","EPOCH":"2025-08-11T22:08:27.702240","MEAN_MOTION":13.18686604,"ECCENTRICITY":0.0002198,"INCLINATION":87.9136,"RA_OF_ASC_NODE":36.8698,"ARG_OF_PERICENTER":86.5876,"MEAN_ANOMALY":273.5507,"EPHEMERIS_TYPE":0,"CLASSIFICATION_TYPE":"U","NORAD_CAT_ID":50503,"ELEMENT_SET_NO":999,"REV_AT_EPOCH":18081,"BSTAR":-7.3024e-6,"MEAN_MOTION_DOT":1.0e-7,"MEAN_MOTION_DDOT":0},{"OBJECT_NAME":"ONEWEB-0450","OBJECT_ID":"2021-132AM","EPOCH":"2025-08-11T21:59:10.404960","MEAN_MOTION":13.18685314,"ECCENTRICITY":0.0001771,"INCLINATION":87.9133,"RA_OF_ASC_NODE":36.8971,"ARG_OF_PERICENTER":81.7237,"MEAN_ANOMALY":278.4096,"EPHEMERIS_TYPE":0,"CLASSIFICATION_TYPE":"U","NORAD_CAT_ID":50504,"ELEMENT_SET_NO":999,"REV_AT_EPOCH":18084,"BSTAR":-5.9658e-5,"MEAN_MOTION_DOT":-1.1e-7,"MEAN_MOTION_DDOT":0},{"OBJECT_NAME":"ONEWEB-0410","OBJECT_ID":"2022-012A","EPOCH":"2025-08-12T07:24:52.856640","MEAN_MOTION":13.17649052,"ECCENTRICITY":0.000241,"INCLINATION":87.9034,"RA_OF_ASC_NODE":67.3075,"ARG_OF_PERICENTER":124.2639,"MEAN_ANOMALY":235.8721,"EPHEMERIS_TYPE":0,"CLASSIFICATION_TYPE":"U","NORAD_CAT_ID":51622,"ELEMENT_SET_NO":999,"REV_AT_EPOCH":17431,"BSTAR":3.5983e-5,"MEAN_MOTION_DOT":2.7e-7,"MEAN_MOTION_DDOT":0}]
