ONEWEB-0412             
1 50489U 21132W   25223.90769509  .00000039  00000+0  65979-4 0  9995
2 50489  87.9131  36.8847 0002178  88.8237 271.3144 13.18684827182176
ONEWEB-0413             
1 50490U 21132X   25223.76087075 -.00000019  00000+0 -80979-4 0  9999
2 50490  87.9134  36.9296 0002113  84.4014 275.7359 13.18688087180811
ONEWEB-0414             
1 50491U 21132Y   25223.97367139  .00000011  00000+0 -49386-5 0  9994
2 50491  87.9129  36.8473 0002033  93.6567 266.4797 13.18685489182164
ONEWEB-0417             
1 50492U 21132Z   25223.90604971 -.00000058  00000+0 -17986-3 0  9997
2 50492  87.9134  36.8926 0001771  99.0910 261.0423 13.18685121182131
ONEWEB-0418             
1 50493U 21132AA  25223.91578599  .00000030  00000+0  42446-4 0  9993
2 50493  87.9133  36.8768 0001812 103.4068 256.7266 13.18687081180901
ONEWEB-0419             
1 50494U 21132AB  25223.93407757 -.00000022  00000+0 -88473-4 0  9996
2 50494  87.9130  36.8751 0001521  97.7765 262.3540 13.18687668180827
ONEWEB-0420             
1 50495U 21132AC  25223.89944189  .00000020  00000+0  17940-4 0  9994
2 50495  87.9132  36.8920 0001917  81.1424 278.9925 13.18685287180810
ONEWEB-0421             
1 50496U 21132AD  25223.89284863  .00000072  00000+0  15040-3 0  9996
2 50496  87.9131  36.8863 0002121  93.2132 266.9243 13.18685402180857
ONEWEB-0424             
1 50497U 21132AE  25223.92912491  .00000001  00000+0 -29355-4 0  9994
2 50497  87.9134  36.8734 0001364  93.1183 267.0106 13.18687145180880
ONEWEB-0426             
1 50498U 21132AF  25223.88954550  .00000021  00000+0  20692-4 0  9998
2 50498  87.9127  36.8745 0002357 105.5450 254.5942 13.18685463182111
ONEWEB-0427             
1 50499U 21132AG  25223.92747483  .00000008  00000+0 -13168-4 0  9995
2 50499  87.9129  36.8564 0001763  98.6637 261.4695 13.18687057180854
ONEWEB-0429             
1 50500U 21132AH  25223.91429008  .00000025  00000+0  31437-4 0  9994
2 50500  87.9134  36.8882 0001825  86.8452 273.2889 13.18686196180825
ONEWEB-0430             
1 50501U 21132AJ  25223.90274322  .00000029  00000+0  40439-4 0  9997
2 50501  87.9138  36.8847 0001570  85.7018 274.4294 13.18685641182159
ONEWEB-0432             
1 50502U 21132AK  25223.93429935 -.00000016  00000+0 -74543-4 0  9994
2 50502  87.9124  36.8591 0001289 120.9082 239.2177 13.18688272180825
ONEWEB-0440             
1 50503U 21132AL  25223.92254285  .00000010  00000+0 -73024-5 0  9995
2 50503  87.9136  36.8698 0002198  86.5876 273.5507 13.18686604180819
ONEWEB-0450             
1 50504U 21132AM  25223.91609265 -.00000011  00000+0 -59658-4 0  9995
2 50504  87.9133  36.8971 0001771  81.7237 278.4096 13.18685314180842
ONEWEB-0410             
1 51622U 22012A   25224.30894510  .00000027  00000+0  35983-4 0  9998
2 51622  87.9034  67.3075 0002410 124.2639 235.8721 13.17649052174313
